[
  {
    "id": 1,
    "name_ar": "دالية الكرمل",
    "name_he": "דלית אל כרמל",
    "phone": "525592293",
    "hours_ar": "",
    "hours_he": "",
    "lat": "",
    "lng": "",
    "waze_maps": "https://waze.com/ul?q=Kiwi%20store%20Daliyat%20al-Karmel&navigate=yes",
    "social": {
      "instagram": "https://www.instagram.com/madperfume_daliyat.al.karmel?igsh=MXJ5OGMyY29uMWx4cQ==",
      "tiktok": "https://www.tiktok.com/@madperfum_daliytalkarmel?_r=1&_t=ZS-92xp7xFmUx0",
      "facebook": "https://www.facebook.com/share/14PaVKwDWQW/",
      "whatsapp": "https://wa.me/525592293"
    }
  },
  {
    "id": 2,
    "name_ar": "كفر مندا",
    "name_he": "כפר מאנדא",
    "phone": "505102019",
    "hours_ar": "",
    "hours_he": "",
    "lat": "",
    "lng": "",
    "waze_maps": "https://ul.waze.com/ul?ll=32.80894429%2C35.26172519&navigate=yes&zoom=17&utm_campaign=default&utm_source=waze_website&utm_medium=lm_share_location",
    "social": {
      "instagram": "https://www.instagram.com/madperfum.kfarmand?igsh=MThtZnM0dXRmc2NreA%3D%3D&utm_source=qr",
      "tiktok": "https://www.tiktok.com/@madperfum_kfarmnda?_r=1&_t=ZS-92xr5BhcQ7O",
      "facebook": "https://www.facebook.com/share/1DSeL6QDvF/?mibextid=wwXIfr",
      "whatsapp": "https://wa.me/505102019"
    }
  },
  {
    "id": 3,
    "name_ar": "الرمله",
    "name_he": "רמלה",
    "phone": "527035370",
    "hours_ar": "",
    "hours_he": "",
    "lat": "",
    "lng": "",
    "waze_maps": "https://www.waze.com/ul?ll=31.9260024,34.8763619&navigate=yes",
    "social": {
      "instagram": "https://www.instagram.com/perfume.mad",
      "tiktok": "https://www.tiktok.com/@mad.perfume",
      "facebook": "https://www.facebook.com/MADPARFUMEURISRAEL",
      "whatsapp": "https://wa.me/527035370"
    }
  },
  {
    "id": 4,
    "name_ar": "تل أبيب - يافا",
    "name_he": "תל אביב-יפו",
    "phone": "527035370",
    "hours_ar": "",
    "hours_he": "",
    "lat": "",
    "lng": "",
    "waze_maps": "https://ul.waze.com/ul?place=EipEYXZpZCBSYXppJ2VsIFN0IDIzLCBUZWwgQXZpdi1ZYWZvLCBJc3JhZWwiMBIuChQKEgntsiS-vkwdFREv7GII8cikqxAXKhQKEgmHZ_csvEwdFRFa3i1EzNr69g&ll=32.05510440%2C34.75639440&navigate=yes&utm_campaign=default&utm_source=waze_website&utm_medium=lm_share_location",
    "social": {
      "instagram": "https://www.instagram.com/perfume.mad",
      "tiktok": "https://www.tiktok.com/@mad.perfume",
      "facebook": "https://www.facebook.com/MADPARFUMEURISRAEL",
      "whatsapp": "https://wa.me/527035370"
    }
  },
  {
    "id": 5,
    "name_ar": "بئر السبع",
    "name_he": "באר שבע",
    "phone": "548809957",
    "hours_ar": "",
    "hours_he": "",
    "lat": "",
    "lng": "",
    "waze_maps": "https://www.waze.com/ul?ll=31.2454066,34.7994449&navigate=yes",
    "social": {
      "instagram": "https://www.instagram.com/perfume.mad",
      "tiktok": "https://www.tiktok.com/@mad.perfume",
      "facebook": "https://www.facebook.com/MADPARFUMEURISRAEL",
      "whatsapp": "https://wa.me/548809957"
    }
  },
  {
    "id": 6,
    "name_ar": "رهط",
    "name_he": "רהט",
    "phone": "505841596",
    "hours_ar": "",
    "hours_he": "",
    "lat": "",
    "lng": "",
    "waze_maps": "https://www.waze.com/ul?ll=31.393133,34.7668897&navigate=yes",
    "social": {
      "instagram": "https://www.instagram.com/perfume.mad",
      "tiktok": "https://www.tiktok.com/@mad.perfume",
      "facebook": "https://www.facebook.com/MADPARFUMEURISRAEL",
      "whatsapp": "https://wa.me/505841596"
    }
  },
  {
    "id": 7,
    "name_ar": "هيرتسيليا",
    "name_he": "הרצליה",
    "phone": "522438398",
    "hours_ar": "",
    "hours_he": "",
    "lat": "",
    "lng": "",
    "waze_maps": "https://waze.com/ul?q=Sokolov+14+Herzliya&navigate=yes",
    "social": {
      "instagram": "https://www.instagram.com/perfume.mad",
      "tiktok": "https://www.tiktok.com/@mad.perfume",
      "facebook": "https://www.facebook.com/MADPARFUMEURISRAEL",
      "whatsapp": "https://wa.me/522438398"
    }
  },
  {
    "id": 8,
    "name_ar": "كفر قاسم",
    "name_he": "כפר קאסם",
    "phone": "522438398",
    "hours_ar": "",
    "hours_he": "",
    "lat": "",
    "lng": "",
    "waze_maps": "https://www.waze.com/ul?ll=32.1168851,34.9698127&navigate=yes",
    "social": {
      "instagram": "https://www.instagram.com/madperfume__kfarqasim?igsh=cWJkZ2x3emJyczFr",
      "tiktok": "https://www.tiktok.com/@madperfume_kfarqasim?_r=1&_t=ZS-92xvtGmhflc",
      "facebook": "https://www.facebook.com/share/1AFXPoVEAv/?mibextid=wwXIfr",
      "whatsapp": "https://wa.me/522438398"
    }
  },
  {
    "id": 9,
    "name_ar": "القدس - صلاح الدين",
    "name_he": "ירושלים - סלאח א-דין",
    "phone": "545697644",
    "hours_ar": "",
    "hours_he": "",
    "lat": "",
    "lng": "",
    "waze_maps": "https://www.waze.com/ul?ll=31.7838104,35.236511&navigate=yes",
    "social": {
      "instagram": "https://www.instagram.com/perfume.mad",
      "tiktok": "https://www.tiktok.com/@mad.perfume",
      "facebook": "https://www.facebook.com/MADPARFUMEURISRAEL",
      "whatsapp": "https://wa.me/545697644"
    }
  },
  {
    "id": 10,
    "name_ar": "القدس - سلطان سليمان",
    "name_he": "ירושלים - סולטאן סולימאן",
    "phone": "522380119",
    "hours_ar": "",
    "hours_he": "",
    "lat": "",
    "lng": "",
    "waze_maps": "https://waze.com/ul?q=Sultan%20Suleiman%20St%20Jerusalem&navigate=yes",
    "social": {
      "instagram": "https://www.instagram.com/perfume.mad",
      "tiktok": "https://www.tiktok.com/@mad.perfume",
      "facebook": "https://www.facebook.com/MADPARFUMEURISRAEL",
      "whatsapp": "https://wa.me/522380119"
    }
  },
  {
    "id": 11,
    "name_ar": "بيت حنينا",
    "name_he": "בית חנינא",
    "phone": "538318312",
    "hours_ar": "",
    "hours_he": "",
    "lat": "",
    "lng": "",
    "waze_maps": "https://ul.waze.com/ul?ll=31.84270095%2C35.22864819&navigate=yes&zoom=17&utm_campaign=default&utm_source=waze_website&utm_medium=lm_share_location",
    "social": {
      "instagram": "https://www.instagram.com/mad.beit.hanina?igsh=NDl5OHRkbDQ1dnht",
      "tiktok": "https://www.tiktok.com/@mad_perfume_?_r=1&_t=ZS-92yelk37q1F",
      "facebook": "https://www.facebook.com/share/18qY9M34ny/",
      "whatsapp": "https://wa.me/538318312"
    }
  },
  {
    "id": 12,
    "name_ar": "حيفا",
    "name_he": "חיפה",
    "phone": "549634449",
    "hours_ar": "",
    "hours_he": "",
    "lat": "",
    "lng": "",
    "waze_maps": "https://www.waze.com/en/live-map/directions/%D7%97%D7%99%D7%A4%D7%94?navigate=yes&place=99506.49&utm_campaign=default&utm_medium=lm_share_location&utm_source=waze_website",
    "social": {
      "instagram": "https://www.instagram.com/mad_haifa?igsh=MTNubXBpM2c5N2swcQ%3D%3D&utm_source=qr",
      "tiktok": "https://www.tiktok.com/@mad.perfume",
      "facebook": "https://www.facebook.com/share/17ajto5ctz/?mibextid=wwXIfr",
      "whatsapp": "https://wa.me/549634449⁩"
    }
  },
  {
    "id": 13,
    "name_ar": "بقعاثا - الجولان",
    "name_he": "בקעאתה - הגולן",
    "phone": "508514202",
    "hours_ar": "",
    "hours_he": "",
    "lat": "",
    "lng": "",
    "waze_maps": "https://www.waze.com/ul?ll=32.7878568,35.5393736&navigate=yes",
    "social": {
      "instagram": "https://www.instagram.com/perfume.mad",
      "tiktok": "https://www.tiktok.com/@mad.perfume",
      "facebook": "https://www.facebook.com/MADPARFUMEURISRAEL",
      "whatsapp": "https://wa.me/46112266"
    }
  },
  {
    "id": 14,
    "name_ar": "الخضيرة",
    "name_he": "חדרה",
    "phone": "523953681",
    "hours_ar": "",
    "hours_he": "",
    "lat": "",
    "lng": "",
    "waze_maps": "https://www.waze.com/ul?ll=32.4417243,34.8950613&navigate=yes",
    "social": {
      "instagram": "https://www.instagram.com/madparfumeur_hadera?igsh=djNuc2xtdWdhc253&utm_source=qr",
      "tiktok": "https://www.tiktok.com/@mad_perfume_hedera?_r=1&_t=ZS-92xpIBDBz8C",
      "facebook": "https://www.facebook.com/share/1DRGcPamzQ/?mibextid=wwXIfr",
      "whatsapp": "https://wa.me/523953681"
    }
  },
  {
    "id": 15,
    "name_ar": "باقة الغربية",
    "name_he": "באקה אלג׳רבייה",
    "phone": "536440073",
    "hours_ar": "",
    "hours_he": "",
    "lat": "",
    "lng": "",
    "waze_maps": "https://www.waze.com/ul?ll=32.4204461,35.0437769&navigate=yes",
    "social": {
      "instagram": "https://www.instagram.com/perfume.mad",
      "tiktok": "https://www.tiktok.com/@mad.perfume",
      "facebook": "https://www.facebook.com/MADPARFUMEURISRAEL",
      "whatsapp": "https://wa.me/536440073"
    }
  },
  {
    "id": 16,
    "name_ar": "الطيبة",
    "name_he": "טייבה",
    "phone": "523953681",
    "hours_ar": "",
    "hours_he": "",
    "lat": "",
    "lng": "",
    "waze_maps": "https://www.waze.com/ul?ll=32.1168851,34.9698127&navigate=yes",
    "social": {
      "instagram": "https://www.instagram.com/madperfume__kfarqasim?igsh=MXNzdTZzZDM0ejZncQ==",
      "tiktok": "https://www.tiktok.com/@madperfume_kfarqasim?_r=1&_t=ZS-92yhn2U7vT2",
      "facebook": "https://www.facebook.com/share/17fffV1oRL/?mibextid=wwXIfr",
      "whatsapp": "https://wa.me/522438398"
    }
  },
  {
    "id": 17,
    "name_ar": "كفر قرع",
    "name_he": "כפר קרע",
    "phone": "549634449",
    "hours_ar": "",
    "hours_he": "",
    "lat": "",
    "lng": "",
    "waze_maps": "https://www.waze.com/ul?ll=32.4984529,35.0644492&navigate=yes",
    "social": {
      "instagram": "https://www.instagram.com/perfume.mad",
      "tiktok": "https://www.tiktok.com/@mad.perfume",
      "facebook": "https://www.facebook.com/MADPARFUMEURISRAEL",
      "whatsapp": "https://wa.me/549634449"
    }
  },
  {
    "id": 18,
    "name_ar": "أم الفحم",
    "name_he": "אום אלפחם",
    "phone": "549634449",
    "hours_ar": "",
    "hours_he": "",
    "lat": "",
    "lng": "",
    "waze_maps": "https://www.waze.com/ul?ll=32.5206069,35.1555539&navigate=yes",
    "social": {
      "instagram": "https://www.instagram.com/perfume.mad",
      "tiktok": "https://www.tiktok.com/@mad.perfume",
      "facebook": "https://www.facebook.com/MADPARFUMEURISRAEL",
      "whatsapp": "https://wa.me/549634449"
    }
  },
  {
    "id": 19,
    "name_ar": "العفولة",
    "name_he": "עפולה",
    "phone": "542144255",
    "hours_ar": "",
    "hours_he": "",
    "lat": "",
    "lng": "",
    "waze_maps": "https://www.waze.com/ul?ll=32.6115685,35.2868666&navigate=yes",
    "social": {
      "instagram": "https://www.instagram.com/perfume.mad",
      "tiktok": "https://www.tiktok.com/@mad.perfume",
      "facebook": "https://www.facebook.com/MADPARFUMEURISRAEL",
      "whatsapp": "https://wa.me/542144255"
    }
  },
  {
    "id": 20,
    "name_ar": "الناصرة",
    "name_he": "נצרת",
    "phone": "545307980",
    "hours_ar": "",
    "hours_he": "",
    "lat": "",
    "lng": "",
    "waze_maps": "https://www.waze.com/ul?ll=32.6954537,35.2980894&navigate=yes",
    "social": {
      "instagram": "https://www.instagram.com/perfume.mad",
      "tiktok": "https://www.tiktok.com/@mad.perfume",
      "facebook": "https://www.facebook.com/MADPARFUMEURISRAEL",
      "whatsapp": "https://wa.me/545307980"
    }
  },
  {
    "id": 21,
    "name_ar": "طمرة",
    "name_he": "טמרה",
    "phone": "505830733",
    "hours_ar": "",
    "hours_he": "",
    "lat": "",
    "lng": "",
    "waze_maps": "https://www.waze.com/ul?ll=32.8573682,35.1745076&navigate=yes",
    "social": {
      "instagram": "https://www.instagram.com/perfume.mad",
      "tiktok": "https://www.tiktok.com/@mad.perfume",
      "facebook": "https://www.facebook.com/MADPARFUMEURISRAEL",
      "whatsapp": "https://wa.me/505830733"
    }
  },
  {
    "id": 22,
    "name_ar": "سخنين",
    "name_he": "סח'נין",
    "phone": "525335571",
    "hours_ar": "",
    "hours_he": "",
    "lat": "",
    "lng": "",
    "waze_maps": "https://www.waze.com/ul?ll=32.8620192,35.2982376&navigate=yes",
    "social": {
      "instagram": "https://www.instagram.com/mad_parfumeur_sakhnin?igsh=MWQzMG1wdWx3dm9sdA==",
      "tiktok": "https://www.tiktok.com/@mad.parfumeur8?_r=1&_t=ZS-92zcMODvG5A",
      "facebook": "https://www.facebook.com/share/17iAsfFoRF/",
      "whatsapp": "https://wa.me/525335571"
    }
  },
  {
    "id": 23,
    "name_ar": "جديدة المكر",
    "name_he": "ג׳דידה אלמכר",
    "phone": "508683838",
    "hours_ar": "",
    "hours_he": "",
    "lat": "",
    "lng": "",
    "waze_maps": "https://www.waze.com/ul?ll=32.9323979,35.1576085&navigate=yes",
    "social": {
      "instagram": "https://www.instagram.com/perfume.mad",
      "tiktok": "https://www.tiktok.com/@mad.perfume",
      "facebook": "https://www.facebook.com/MADPARFUMEURISRAEL",
      "whatsapp": "https://wa.me/508683838"
    }
  },
  {
    "id": 24,
    "name_ar": "يركا",
    "name_he": "ירכא",
    "phone": "546842420",
    "hours_ar": "",
    "hours_he": "",
    "lat": "",
    "lng": "",
    "waze_maps": "https://www.waze.com/ul?ll=32.947444,35.1740662&navigate=yes",
    "social": {
      "instagram": "https://www.instagram.com/mad.parfume.yarka?igsh=YWdlNDg5bGVkeHJw",
      "tiktok": "https://www.tiktok.com/@mad_perfume_yarka_?_r=1&_t=ZS-92zdsWjhpJg",
      "facebook": "https://www.facebook.com/share/1Dw8vjay9w/?mibextid=wwXIfr",
      "whatsapp": "https://wa.me/546842420"
    }
  },
  {
    "id": 25,
    "name_ar": "طبريا",
    "name_he": "טבריה",
    "phone": "525797642",
    "hours_ar": "",
    "hours_he": "",
    "lat": "",
    "lng": "",
    "waze_maps": "https://www.waze.com/ul?ll=32.1168851,34.9698127&navigate=yes",
    "social": {
      "instagram": "https://www.instagram.com/madperfume__kfarqasim?igsh=MXNzdTZzZDM0ejZncQ==",
      "tiktok": "https://www.tiktok.com/@madperfume_kfarqasim?_r=1&_t=ZS-92yqZNefEur",
      "facebook": "https://www.facebook.com/share/1BzbPeTp6G/?mibextid=wwXIfr",
      "whatsapp": "https://wa.me/525797642"
    }
  },
  {
    "id": 26,
    "name_ar": "مجدل شمس - الجولان",
    "name_he": "מג'דל שמס - הגולן",
    "phone": "508514202",
    "hours_ar": "",
    "hours_he": "",
    "lat": "",
    "lng": "",
    "waze_maps": "https://www.waze.com/ul?q=Helmi%20Square%20Taibeh&navigate=yes",
    "social": {
      "instagram": "https://www.instagram.com/madperfumetaybe?igsh=MTA5a29yZzVmMmpycQ%3D%3D&utm_source=qr",
      "tiktok": "https://www.tiktok.com/@mad.perfume.taybe?_r=1&_t=ZS-92xpljSmHKB",
      "facebook": "https://www.facebook.com/share/1RfZRJ9Gcn/?mibextid=wwXIfr",
      "whatsapp": "https://wa.me/523953681"
    }
  },
  {
    "id": 27,
    "name_ar": "نابلس - بيت وزن",
    "name_he": "שכם - בית וזן",
    "phone": "598094672",
    "hours_ar": "",
    "hours_he": "",
    "lat": "",
    "lng": "",
    "waze_maps": "https://maps.app.goo.gl/NEAY2wMbBYRh7WDx9",
    "social": {
      "instagram": "https://www.instagram.com/perfume.mad",
      "tiktok": "https://www.tiktok.com/@mad.perfume",
      "facebook": "https://www.facebook.com/MADPARFUMEURISRAEL",
      "whatsapp": "https://wa.me/592592502"
    }
  },
  {
    "id": 28,
    "name_ar": "طولكرم - مركز المدينة",
    "name_he": "טול כרם",
    "phone": "595552670",
    "hours_ar": "",
    "hours_he": "",
    "lat": "",
    "lng": "",
    "waze_maps": "https://waze.com/ul?q=Nablus%20City%20Mall&navigate=yes",
    "social": {
      "instagram": "https://www.instagram.com/perfume.mad",
      "tiktok": "https://www.tiktok.com/@mad.perfume",
      "facebook": "https://www.facebook.com/MADPARFUMEURISRAEL",
      "whatsapp": "https://wa.me/598094672"
    }
  },
  {
    "id": 29,
    "name_ar": "رام الله - الأيكون مول",
    "name_he": "ראמאללה - קניון אייקון",
    "phone": "592592502",
    "hours_ar": "",
    "hours_he": "",
    "lat": "",
    "lng": "",
    "waze_maps": "https://www.waze.com/ul?ll=33.2669846,35.7671611&navigate=yes",
    "social": {
      "instagram": "https://www.instagram.com/mad.parfumeur.majdal?igsh=MXM5YWJ0c2N6b3JsaQ%3D%3D&utm_source=qr",
      "tiktok": "https://www.tiktok.com/@madash061?_r=1&_t=ZS-92vveqHjNXJ",
      "facebook": "https://www.facebook.com/profile.php?id=61586636930296",
      "whatsapp": "https://wa.me/508514202"
    }
  },
  {
    "id": 30,
    "name_ar": "صابات مول - بيت لحم",
    "name_he": "בית לחם",
    "phone": "599353940",
    "hours_ar": "",
    "hours_he": "",
    "lat": "",
    "lng": "",
    "waze_maps": "https://waze.com/ul?q=Mahanna%20Store%20Qalqilya&navigate=yes",
    "social": {
      "instagram": "https://www.instagram.com/perfume.mad",
      "tiktok": "https://www.tiktok.com/@mad.perfume",
      "facebook": "https://www.facebook.com/MADPARFUMEURISRAEL",
      "whatsapp": "https://wa.me/595800150"
    }
  },
  {
    "id": 31,
    "name_ar": "قلقيلية - شارع التربية (مقابل مؤسسة مهنا)",
    "name_he": "קלקיליה - רחוב החינוך (מול מוסד מהנא)",
    "phone": "595800150",
    "hours_ar": "",
    "hours_he": "",
    "lat": "",
    "lng": "",
    "waze_maps": "https://waze.com/ul?q=Jaffa%20Street%20Nablus&navigate=yes",
    "social": {
      "instagram": "https://www.instagram.com/perfume.mad",
      "tiktok": "https://www.tiktok.com/@mad.perfume",
      "facebook": "https://www.facebook.com/MADPARFUMEURISRAEL",
      "whatsapp": "https://wa.me/598094672"
    }
  },
  {
    "id": 32,
    "name_ar": "دوار مركز البلد - أريحا",
    "name_he": "יריחו",
    "phone": "592592502",
    "hours_ar": "",
    "hours_he": "",
    "lat": "",
    "lng": "",
    "waze_maps": "Mad Perfume Tulkarm",
    "social": {
      "instagram": "https://www.instagram.com/perfume.mad",
      "tiktok": "https://www.tiktok.com/@mad.perfume",
      "facebook": "https://www.facebook.com/MADPARFUMEURISRAEL",
      "whatsapp": "https://wa.me/595552670"
    }
  },
  {
    "id": 33,
    "name_ar": "فرع جديد",
    "name_he": "בקרוב",
    "phone": "549634449",
    "hours_ar": "",
    "hours_he": "",
    "lat": "",
    "lng": "",
    "waze_maps": "Mad Perfume Bethlehem",
    "social": {
      "instagram": "https://www.instagram.com/perfume.mad",
      "tiktok": "https://www.tiktok.com/@mad.perfume",
      "facebook": "https://www.facebook.com/MADPARFUMEURISRAEL",
      "whatsapp": "https://wa.me/599353940"
    }
  },
  {
    "id": 36,
    "name_ar": "",
    "name_he": "",
    "phone": "",
    "hours_ar": "",
    "hours_he": "",
    "lat": "",
    "lng": "",
    "waze_maps": "",
    "social": {
      "instagram": "",
      "tiktok": "",
      "facebook": "",
      "whatsapp": ""
    }
  },
  {
    "id": 271,
    "name_ar": "نابلس - شارع يافا",
    "name_he": "שכם - רחוב יפו",
    "phone": "598094672",
    "hours_ar": "",
    "hours_he": "",
    "lat": "",
    "lng": "",
    "waze_maps": "https://waze.com/ul?q=KFC%20Al-Irsal%20Ramallah&navigate=yes",
    "social": {
      "instagram": "https://www.instagram.com/perfume.mad",
      "tiktok": "https://www.tiktok.com/@mad.perfume",
      "facebook": "https://www.facebook.com/MADPARFUMEURISRAEL",
      "whatsapp": "https://wa.me/592592502"
    }
  },
  {
    "id": 272,
    "name_ar": "نابلس - سيتي مول",
    "name_he": "שכם - סיטי מול",
    "phone": "598094672",
    "hours_ar": "",
    "hours_he": "",
    "lat": "",
    "lng": "",
    "waze_maps": "https://waze.com/ul?q=Beit%20Wazan%20Nablus&navigate=yes",
    "social": {
      "instagram": "https://www.instagram.com/perfume.mad",
      "tiktok": "https://www.tiktok.com/@mad.perfume",
      "facebook": "https://www.facebook.com/MADPARFUMEURISRAEL",
      "whatsapp": "https://wa.me/598094672"
    }
  },
  {
    "id": 291,
    "name_ar": "رام الله - شارع الإرسال (مقابل KFC)",
    "name_he": "ראמאללה - רחוב אל-אירסאל (מול KFC)",
    "phone": "592592502",
    "hours_ar": "",
    "hours_he": "",
    "lat": "",
    "lng": "",
    "waze_maps": "https://www.google.com/maps?q=33.199710845947266,35.77457809448242&z=17&hl=ar",
    "social": {
      "instagram": "https://www.instagram.com/mad_buqata?igsh=MW41ODEzcnBxaDdieA%3D%3D&utm_source=qr",
      "tiktok": "https://www.tiktok.com/@madash061?_r=1&_t=ZS-92yeN3vZPmv",
      "facebook": "https://www.facebook.com/share/1By1dhDR5J/?mibextid=wwXIfr",
      "whatsapp": "https://wa.me/508514202"
    }
  }
]
